ZHUHAI-1 OVS-02         
1 43440U 18040B   25268.33415286  .00011116  00000+0  50813-3 0  9992
2 43440  97.0647 296.6456 0006032 109.8894 250.2993 15.20693464412409
ZHUHAI-1 OHS-02         
1 43441U 18040C   25268.24913350  .00017348  00000+0  62403-3 0  9999
2 43441  97.0685 302.3183 0014302 102.5200 257.7642 15.28571802 73870
GAOFEN-6                
1 43484U 18048A   25268.31396021  .00001594  00000+0  23500-3 0  9993
2 43484  97.8133 335.1664 0011124 314.5343  45.4958 14.76625525394303
LUOJIA-1 01             
1 43485U 18048B   25268.31701006  .00005018  00000+0  58417-3 0  9997
2 43485  97.8357 345.6791 0007899 271.3166  88.7144 14.85695181394869
PAKTES 1A               
1 43529U 18056A   25268.34100446  .00006279  00000+0  54513-3 0  9992
2 43529  98.0942  49.4698 0020341 270.0512  89.8378 14.97258885392266
PRSS-1                  
1 43530U 18056B   25268.26488223  .00002141  00000+0  28100-3 0  9994
2 43530  97.8161 338.0937 0001609 103.2506 256.8886 14.81299245389205
HAIYANG-1C              
1 43609U 18068A   25268.26765841  .00000350  00000+0  14070-3 0  9999
2 43609  98.5526 338.9817 0011090 156.2816 203.8882 14.34144610369117
SSTL S1-4               
1 43618U 18071A   25268.25395931  .00002297  00000+0  20876-3 0  9994
2 43618  97.5361 145.2361 0000860  22.3883 337.7377 14.96177627383323
HAIYANG-2B              
1 43655U 18081A   25268.32407924  .00000014  00000+0  56448-4 0  9990
2 43655  99.3358 276.0399 0000225 251.4785 108.6343 13.79305917348419
CZ-4B R/B               
1 43656U 18081B   25268.26455415  .00000528  00000+0  17522-3 0  9991
2 43656  99.3783 159.9579 0204509 309.9338  48.4027 14.31700007361395
CFOSAT                  
1 43662U 18083A   25268.28761022  .00007780  00000+0  40316-3 0  9990
2 43662  97.3649 275.6078 0001046 104.3433 255.7917 15.16446831382294
TEN-KOH                 
1 43677U 18084G   25268.20504760  .00004985  00000+0  39452-3 0  9996
2 43677  98.0789  84.7289 0006581 254.6313 105.4183 15.01081211376381
DIWATA-2B               
1 43678U 18084H   25268.29244160  .00004519  00000+0  37977-3 0  9994
2 43678  98.1070  88.6057 0008155 289.0103  71.0234 14.98814587376515
STARS-AO                
1 43679U 18084J   25267.57705951  .00010707  00000+0  61796-3 0  9997
2 43679  98.0717 100.5669 0002494  21.2455 338.8877 15.12537741377252
AUTCUBE 2               
1 43681U 18084K   25267.76283705  .00007386  00000+0  49515-3 0  9993
2 43681  98.0851  95.0744 0008819 214.0115 146.0546 15.07158930376904
METOP-C                 
1 43689U 18087A   25268.19807192  .00000265  00000+0  14090-3 0  9993
2 43689  98.7047 327.1226 0001166 156.2355 203.8876 14.21495850357188
ES'HAIL 2               
1 43700U 18090A   25268.22426847  .00000147  00000+0  00000+0 0  9990
2 43700   0.0200 159.3469 0001367  55.6195 255.8717  1.00272924 25024
TIANPING 1B             
1 43714U 18094E   25267.69310137  .00323150  42694-4  86170-3 0  9991
2 43714  97.2935 307.3589 0001259 131.0556 229.0829 15.94543110383110
MOHAMMED VI-B           
1 43717U 18095A   25268.30587375  .00001685  00000+0  24582-3 0  9999
2 43717  97.9444 339.4147 0001251  85.8636 274.2717 14.77068303369082
HYSIS                   
1 43719U 18096A   25268.28045191  .00002594  00000+0  36156-3 0  9994
2 43719  98.0199 331.5975 0000520 106.4958 253.6310 14.78594143368277
COSMOS 2530             
1 43751U 18097A   25268.29748152  .00000043  00000+0  24335-3 0  9992
2 43751  82.5189  26.7006 0018888 251.4252 108.4776 12.42870234309389
COSMOS 2531             
1 43752U 18097B   25268.32473958  .00000038  00000+0  20212-3 0  9990
2 43752  82.5230  27.6495 0015646 270.6238  89.3049 12.42864711309401
COSMOS 2532             
1 43753U 18097C   25268.35167950  .00000033  00000+0  16450-3 0  9990
2 43753  82.5179  26.5385 0017141 272.6825  87.2293 12.42862913309372
MINXSS-2                
1 43758U 18099A   25267.78133379  .00031453  00000+0  11049-2 0  9999
2 43758  97.4907 334.3438 0012164 135.4309 224.7912 15.29260419373337
SIRION PATHFINDER-2     
1 43759U 18099B   25267.70948985  .00009181  00000+0  55328-3 0  9991
2 43759  97.4653 318.0729 0010756 132.1293 228.0853 15.10946207372481
AISTECHSAT 2            
1 43768U 18099L   25268.07987728  .00010794  00000+0  63956-3 0  9998
2 43768  97.4710 316.9589 0006484 127.4562 232.7259 15.11548039372175
FOX-1CLIFF (AO-95)      
1 43770U 18099N   25268.15367048  .00018095  00000+0  86026-3 0  9992
2 43770  97.4800 325.1182 0010156 189.1907 170.9144 15.19210025372870
2018-099Q               
1 43772U 18099Q   25268.16782120  .00050465  00000+0  14316-2 0  9996
2 43772  97.4602 334.2163 0003927  86.4083 273.7610 15.36051814373480
RANGE-A                 
1 43773U 18099R   25267.39040832  .00009040  00000+0  55814-3 0  9990
2 43773  97.4376 312.7001 0011272 175.8162 184.3164 15.10064680372335
HIBER-2                 
1 43774U 18099S   25267.78258971  .00087218  00000+0  17014-2 0  9991
2 43774  97.4763 339.6317 0005097 118.5955 241.5808 15.47181288373703
VESTA-1                 
1 43781U 18099Z   25268.13845743  .00106753  00000+0  19806-2 0  9995
2 43781  97.4478 333.2676 0003721 140.8028 219.3493 15.48559118373641
SNUSAT-2                
1 43782U 18099AA  25268.11147546  .00014431  00000+0  74850-3 0  9992
2 43782  97.4473 320.9253 0012872 136.8108 223.4136 15.16183550372784
SNUGLITE                
1 43784U 18099AC  25268.09403517  .00019092  00000+0  89894-3 0  9996
2 43784  97.4293 320.7124 0004689 129.3836 230.7815 15.19567252372955
ITASAT                  
1 43786U 18099AE  25268.11059481  .00012286  00000+0  67266-3 0  9995
2 43786  97.4444 320.1037 0013917 188.7156 171.3836 15.14290789372721
EAGLET-I                
1 43790U 18099AJ  25268.14055377  .00008309  00000+0  51479-3 0  9993
2 43790  97.4648 319.7060 0012123 172.2182 187.9238 15.09956158372291
ESEO                    
1 43792U 18099AL  25268.06944528  .00004243  00000+0  31903-3 0  9994
2 43792  97.4368 311.4277 0012966 153.6035 206.5854 15.03006627371962
THEA                    
1 43796U 18099AQ  25268.17873557  .00024948  00000+0  10241-2 0  9998
2 43796  97.4826 331.7814 0010489 139.0628 221.1399 15.24158354372170
ASTROCAST 0.1           
1 43798U 18099AS  25268.16166443  .00033409  00000+0  10738-2 0  9991
2 43798  97.4727 336.4345 0008421  96.7926 263.4274 15.32162832373623
JY1SAT (JO-97)          
1 43803U 18099AX  25268.14788507  .00023286  00000+0  97979-3 0  9992
2 43803  97.4542 326.3679 0008570 124.6887 235.5159 15.23353721373132
SUOMI-100               
1 43804U 18099AY  25268.15090689  .00020267  00000+0  92729-3 0  9995
2 43804  97.4608 325.3317 0013238 129.7053 230.5352 15.20477065373036
AL-FARABI 2             
1 43805U 18099AZ  25268.23894302  .00058121  00000+0  14714-2 0  9996
2 43805  97.4424 333.6698 0006926 101.4709 258.7315 15.39524958373707
CENTAURI-1              
1 43809U 18099BD  25268.09125223  .00010850  00000+0  62556-3 0  9998
2 43809  97.4636 320.5435 0016058 161.5307 198.6511 15.12441234372376
GLOBAL-2                
1 43812U 18099BG  25268.13352770  .00007104  00000+0  48551-3 0  9993
2 43812  97.3937 310.4749 0005825 359.5628   0.5593 15.06429095371974
SEAHAWK-1               
1 43820U 18099BQ  25267.72411459  .00013902  00000+0  70918-3 0  9991
2 43820  97.4380 319.6763 0010445 149.9726 210.2108 15.16801984372208
SAUDISAT 5A             
1 43831U 18102A   25268.31166895  .00010351  00000+0  42664-3 0  9997
2 43831  97.3465 330.0439 0010215 359.9140   0.2094 15.24219792375278
SAUDISAT 5B             
1 43833U 18102C   25268.32140770  .00010221  00000+0  41629-3 0  9990
2 43833  97.3551 332.6526 0010980   2.0293 358.0987 15.24619254375389
2018-102D               
1 43834U 18102D   25268.27192773  .00035779  00000+0  81159-3 0  9992
2 43834  97.3713 345.4682 0005981 322.2206  37.8621 15.42966811376114
ISAT                    
1 43879U 18111D   25268.27627124  .00043398  00000+0  12935-2 0  9995
2 43879  97.5872 185.3126 0008732 155.7877 204.3777 15.34505048370181
UWE-4                   
1 43880U 18111E   25267.72211970  .00030365  00000+0  10666-2 0  9993
2 43880  97.5816 182.3947 0010753 179.2692 180.8566 15.29286048369981
D-STAR ONE (SPARROW)    
1 43881U 18111F   25267.83655563  .00045805  00000+0  13003-2 0  9999
2 43881  97.6042 188.1909 0005208 183.9004 176.2199 15.36049721370227
JILIN-1 09              
1 43943U 19005B   25267.50753609  .00008729  00000+0  44452-3 0  9992
2 43943  97.4801   0.3138 0001477 318.4002  41.7119 15.17034703368816
JILIN-1 10              
1 43946U 19005E   25268.28530809  .00012378  00000+0  55476-3 0  9999
2 43946  97.4811   2.9124 0009985 126.1053 234.1109 15.21331651368976
EGYPTSAT-A (MISRSAT-A)  
1 44047U 19008A   25268.29805014  .00001420  00000+0  23197-3 0  9990
2 44047  98.0097 331.9720 0001393 108.7054 251.4305 14.72391994354269
EMISAT                  
1 44078U 19018A   25268.31467148  .00000479  00000+0  15428-3 0  9991
2 44078  98.5054 323.0287 0017843 297.7557  62.1824 14.43615597341844
JILIN-1 GAOFEN 3A       
1 44312U 19032C   25268.30603502  .00019153  00000+0  76409-3 0  9998
2 44312  44.9821   6.8919 0010282 239.8924 120.0939 15.24906201347296
XIAOXIANG 4             
1 44313U 19032D   25268.29931846  .00261903  00000+0  16354-2 0  9996
2 44313  44.9827 268.2442 0011026  52.4043 307.7857 15.75304058348524
WT 1A                   
1 44315U 19032F   25268.27883497  .00056965  00000+0  11822-2 0  9999
2 44315  44.9840 303.2766 0012759 321.5947  38.4033 15.44871264348064
WT 1B                   
1 44316U 19032G   25267.89636427  .00022048  00000+0  10274-2 0  9991
2 44316  44.9763  61.5228 0014157 191.4812 168.5747 15.19505074346616
PROX-1                  
1 44339U 19036A   25268.15598244  .00020772  00000+0  25056-2 0  9990
2 44339  23.9969  74.0458 0006061 220.7158 139.2887 14.82255242333988
